start=new Date('2022-11-19T00:00:00.000Z').valueOf();
sats=[{"MEAN_MOTION_DDOT":"0.0000000000000","MEAN_MOTION":"15.08846575","DECAY_DATE":null,"EPOCH":"2022-11-18T22:00:00.999936","OBJECT_TYPE":"PAYLOAD","GP_ID":"218169386","SEMIMAJOR_AXIS":"6917.860","NORAD_CAT_ID":"53627","ECCENTRICITY":"0.00017560","OBJECT_NAME":"STARLINK-4595","CENTER_NAME":"EARTH","RA_OF_ASC_NODE":"251.2496","REV_AT_EPOCH":"130","MEAN_ELEMENT_THEORY":"SGP4","COUNTRY_CODE":"US","TLE_LINE1":"1 53627U 22104AR  22322.91667824 -.00027345  00000-0 -17062-2 0  9997","LAUNCH_DATE":"2022-08-28","FILE":"3662753","ELEMENT_SET_NO":"999","CLASSIFICATION_TYPE":"U","PERIOD":"95.437","APOAPSIS":"540.940","SITE":"AFETR","BSTAR":"-0.00170620000000","RCS_SIZE":"LARGE","EPHEMERIS_TYPE":"0","MEAN_MOTION_DOT":"-0.00027345","INCLINATION":"53.2164","TIME_SYSTEM":"UTC","TLE_LINE2":"2 53627  53.2164 251.2496 0001756  58.7206  71.3815 15.08846575  1300","ARG_OF_PERICENTER":"58.7206","OBJECT_ID":"2022-104AR","MEAN_ANOMALY":"71.3815","PERIAPSIS":"538.511","REF_FRAME":"TEME"},{"TLE_LINE1":"1 53628U 22104AS  22322.91667824 -.00009173  00000-0 -55888-3 0  9996","COUNTRY_CODE":"US","MEAN_ELEMENT_THEORY":"SGP4","LAUNCH_DATE":"2022-08-28","ECCENTRICITY":"0.00016160","SEMIMAJOR_AXIS":"6917.864","NORAD_CAT_ID":"53628","OBJECT_NAME":"STARLINK-4600","RA_OF_ASC_NODE":"251.0969","REV_AT_EPOCH":"130","CENTER_NAME":"EARTH","DECAY_DATE":null,"MEAN_MOTION":"15.08845249","GP_ID":"218169860","OBJECT_TYPE":"PAYLOAD","EPOCH":"2022-11-18T22:00:00.999936","MEAN_MOTION_DDOT":"0.0000000000000","OBJECT_ID":"2022-104AS","REF_FRAME":"TEME","PERIAPSIS":"538.611","MEAN_ANOMALY":"162.3192","TLE_LINE2":"2 53628  53.2171 251.0969 0001616  47.8857 162.3192 15.08845249  1304","TIME_SYSTEM":"UTC","INCLINATION":"53.2171","ARG_OF_PERICENTER":"47.8857","RCS_SIZE":"LARGE","BSTAR":"-0.00055888000000","EPHEMERIS_TYPE":"0","MEAN_MOTION_DOT":"-0.00009173","PERIOD":"95.437","CLASSIFICATION_TYPE":"U","ELEMENT_SET_NO":"999","FILE":"3662753","SITE":"AFETR","APOAPSIS":"540.847"},{"SITE":"AFETR","APOAPSIS":"541.137","ELEMENT_SET_NO":"999","CLASSIFICATION_TYPE":"U","PERIOD":"95.437","FILE":"3662753","EPHEMERIS_TYPE":"0","MEAN_MOTION_DOT":"-0.00011737","BSTAR":"-0.00072031000000","RCS_SIZE":"LARGE","ARG_OF_PERICENTER":"49.9397","TLE_LINE2":"2 53629  53.2170 251.2120 0002056  49.9397 100.1320 15.08850151  1307","INCLINATION":"53.2170","TIME_SYSTEM":"UTC","REF_FRAME":"TEME","MEAN_ANOMALY":"100.1320","PERIAPSIS":"538.292","OBJECT_ID":"2022-104AT","MEAN_MOTION_DDOT":"0.0000000000000","EPOCH":"2022-11-18T22:00:00.999936","OBJECT_TYPE":"PAYLOAD","GP_ID":"218169055","DECAY_DATE":null,"MEAN_MOTION":"15.08850151","RA_OF_ASC_NODE":"251.2120","REV_AT_EPOCH":"130","CENTER_NAME":"EARTH","ECCENTRICITY":"0.00020560","SEMIMAJOR_AXIS":"6917.849","NORAD_CAT_ID":"53629","OBJECT_NAME":"STARLINK-4602","LAUNCH_DATE":"2022-08-28","COUNTRY_CODE":"US","TLE_LINE1":"1 53629U 22104AT  22322.91667824 -.00011737  00000-0 -72031-3 0  9995","MEAN_ELEMENT_THEORY":"SGP4"},{"RA_OF_ASC_NODE":"242.0340","REV_AT_EPOCH":"130","CENTER_NAME":"EARTH","OBJECT_NAME":"STARLINK-4598","SEMIMAJOR_AXIS":"6864.483","NORAD_CAT_ID":"53630","ECCENTRICITY":"0.00013650","LAUNCH_DATE":"2022-08-28","COUNTRY_CODE":"US","TLE_LINE1":"1 53630U 22104AU  22322.91667824 -.01198600  00000-0 -49292-1 0  9994","MEAN_ELEMENT_THEORY":"SGP4","MEAN_MOTION_DDOT":"0.0000000000000","EPOCH":"2022-11-18T22:00:00.999936","GP_ID":"218169221","OBJECT_TYPE":"PAYLOAD","DECAY_DATE":null,"MEAN_MOTION":"15.26479770","ARG_OF_PERICENTER":"67.7125","TLE_LINE2":"2 53630  53.2168 242.0340 0001365  67.7125  28.3907 15.26479770  1303","INCLINATION":"53.2168","TIME_SYSTEM":"UTC","REF_FRAME":"TEME","MEAN_ANOMALY":"28.3907","PERIAPSIS":"485.411","OBJECT_ID":"2022-104AU","SITE":"AFETR","APOAPSIS":"487.285","CLASSIFICATION_TYPE":"U","ELEMENT_SET_NO":"999","PERIOD":"94.335","FILE":"3662753","EPHEMERIS_TYPE":"0","MEAN_MOTION_DOT":"-0.01198600","BSTAR":"-0.04929200000000","RCS_SIZE":"LARGE"},{"NORAD_CAT_ID":"53631","SEMIMAJOR_AXIS":"6917.841","ECCENTRICITY":"0.00019380","OBJECT_NAME":"STARLINK-4599","CENTER_NAME":"EARTH","RA_OF_ASC_NODE":"251.1325","REV_AT_EPOCH":"130","MEAN_ELEMENT_THEORY":"SGP4","TLE_LINE1":"1 53631U 22104AV  22322.91667824 -.00009232  00000-0 -56246-3 0  9995","COUNTRY_CODE":"US","LAUNCH_DATE":"2022-08-28","MEAN_MOTION_DDOT":"0.0000000000000","MEAN_MOTION":"15.08853021","DECAY_DATE":null,"OBJECT_TYPE":"PAYLOAD","GP_ID":"218169706","EPOCH":"2022-11-18T22:00:00.999936","TIME_SYSTEM":"UTC","INCLINATION":"53.2171","TLE_LINE2":"2 53631  53.2171 251.1325 0001938  44.2073 145.9897 15.08853021  1309","ARG_OF_PERICENTER":"44.2073","OBJECT_ID":"2022-104AV","PERIAPSIS":"538.365","MEAN_ANOMALY":"145.9897","REF_FRAME":"TEME","FILE":"3662753","PERIOD":"95.437","CLASSIFICATION_TYPE":"U","ELEMENT_SET_NO":"999","APOAPSIS":"541.046","SITE":"AFETR","BSTAR":"-0.00056246000000","RCS_SIZE":"LARGE","EPHEMERIS_TYPE":"0","MEAN_MOTION_DOT":"-0.00009232"},{"MEAN_MOTION":"15.27061921","DECAY_DATE":null,"GP_ID":"218169541","OBJECT_TYPE":"PAYLOAD","EPOCH":"2022-11-18T22:00:00.999936","MEAN_MOTION_DDOT":"0.0000000000000","MEAN_ELEMENT_THEORY":"SGP4","TLE_LINE1":"1 53632U 22104AW  22322.91667824 -.01175817  00000-0 -47427-1 0  9999","COUNTRY_CODE":"US","LAUNCH_DATE":"2022-08-28","SEMIMAJOR_AXIS":"6862.738","OBJECT_NAME":"STARLINK-4606","NORAD_CAT_ID":"53632","ECCENTRICITY":"0.00013980","CENTER_NAME":"EARTH","REV_AT_EPOCH":"130","RA_OF_ASC_NODE":"241.9861","RCS_SIZE":"LARGE","BSTAR":"-0.04742700000000","EPHEMERIS_TYPE":"0","MEAN_MOTION_DOT":"-0.01175817","FILE":"3662753","PERIOD":"94.299","ELEMENT_SET_NO":"999","CLASSIFICATION_TYPE":"U","APOAPSIS":"485.562","SITE":"AFETR","OBJECT_ID":"2022-104AW","PERIAPSIS":"483.643","MEAN_ANOMALY":"59.4203","REF_FRAME":"TEME","TIME_SYSTEM":"UTC","INCLINATION":"53.2168","TLE_LINE2":"2 53632  53.2168 241.9861 0001398  60.8814  59.4203 15.27061921  1306","ARG_OF_PERICENTER":"60.8814"},{"ARG_OF_PERICENTER":"57.6856","INCLINATION":"53.2168","TIME_SYSTEM":"UTC","TLE_LINE2":"2 53633  53.2168 242.0093 0001463  57.6856  50.5613 15.26766209  1306","MEAN_ANOMALY":"50.5613","PERIAPSIS":"484.485","REF_FRAME":"TEME","OBJECT_ID":"2022-104AX","APOAPSIS":"486.493","SITE":"AFETR","FILE":"3662753","ELEMENT_SET_NO":"999","CLASSIFICATION_TYPE":"U","PERIOD":"94.317","MEAN_MOTION_DOT":"-0.01180410","EPHEMERIS_TYPE":"0","RCS_SIZE":"LARGE","BSTAR":"-0.04805900000000","CENTER_NAME":"EARTH","RA_OF_ASC_NODE":"242.0093","REV_AT_EPOCH":"130","NORAD_CAT_ID":"53633","SEMIMAJOR_AXIS":"6863.624","ECCENTRICITY":"0.00014630","OBJECT_NAME":"STARLINK-4593","LAUNCH_DATE":"2022-08-28","MEAN_ELEMENT_THEORY":"SGP4","COUNTRY_CODE":"US","TLE_LINE1":"1 53633U 22104AX  22322.91667824 -.01180410  00000-0 -48059-1 0  9997","MEAN_MOTION_DDOT":"0.0000000000000","EPOCH":"2022-11-18T22:00:00.999936","OBJECT_TYPE":"PAYLOAD","GP_ID":"218168714","MEAN_MOTION":"15.26766209","DECAY_DATE":null},{"MEAN_ELEMENT_THEORY":"SGP4","TLE_LINE1":"1 53634U 22104AY  22322.91667824 -.01177008  00000-0 -46611-1 0  9999","COUNTRY_CODE":"US","LAUNCH_DATE":"2022-08-28","ECCENTRICITY":"0.00015100","SEMIMAJOR_AXIS":"6860.934","NORAD_CAT_ID":"53634","OBJECT_NAME":"STARLINK-4592","CENTER_NAME":"EARTH","REV_AT_EPOCH":"130","RA_OF_ASC_NODE":"241.9391","MEAN_MOTION":"15.27664067","DECAY_DATE":null,"GP_ID":"218168879","OBJECT_TYPE":"PAYLOAD","EPOCH":"2022-11-18T22:00:00.999936","MEAN_MOTION_DDOT":"0.0000000000000","OBJECT_ID":"2022-104AY","PERIAPSIS":"481.763","MEAN_ANOMALY":"87.8936","REF_FRAME":"TEME","TIME_SYSTEM":"UTC","INCLINATION":"53.2170","TLE_LINE2":"2 53634  53.2170 241.9391 0001510  56.0334  87.8936 15.27664067  1307","ARG_OF_PERICENTER":"56.0334","BSTAR":"-0.04661100000000","RCS_SIZE":"LARGE","EPHEMERIS_TYPE":"0","MEAN_MOTION_DOT":"-0.01177008","FILE":"3662753","PERIOD":"94.262","CLASSIFICATION_TYPE":"U","ELEMENT_SET_NO":"999","APOAPSIS":"483.835","SITE":"AFETR"},{"LAUNCH_DATE":"2022-08-28","MEAN_ELEMENT_THEORY":"SGP4","TLE_LINE1":"1 53635U 22104AZ  22322.91667824 -.01203652  00000-0 -48170-1 0  9997","COUNTRY_CODE":"US","CENTER_NAME":"EARTH","RA_OF_ASC_NODE":"241.9622","REV_AT_EPOCH":"130","SEMIMAJOR_AXIS":"6861.776","ECCENTRICITY":"0.00014170","NORAD_CAT_ID":"53635","OBJECT_NAME":"STARLINK-4587","OBJECT_TYPE":"PAYLOAD","GP_ID":"218169387","EPOCH":"2022-11-18T22:00:00.999936","MEAN_MOTION":"15.27383112","DECAY_DATE":null,"MEAN_MOTION_DDOT":"0.0000000000000","PERIAPSIS":"482.668","MEAN_ANOMALY":"64.5610","REF_FRAME":"TEME","OBJECT_ID":"2022-104AZ","ARG_OF_PERICENTER":"67.6250","TIME_SYSTEM":"UTC","INCLINATION":"53.2166","TLE_LINE2":"2 53635  53.2166 241.9622 0001417  67.6250  64.5610 15.27383112  1301","EPHEMERIS_TYPE":"0","MEAN_MOTION_DOT":"-0.01203652","BSTAR":"-0.04817000000000","RCS_SIZE":"LARGE","APOAPSIS":"484.613","SITE":"AFETR","FILE":"3662753","PERIOD":"94.279","ELEMENT_SET_NO":"999","CLASSIFICATION_TYPE":"U"},{"OBJECT_ID":"2022-104BA","PERIAPSIS":"479.955","MEAN_ANOMALY":"101.6677","REF_FRAME":"TEME","TIME_SYSTEM":"UTC","INCLINATION":"53.2167","TLE_LINE2":"2 53636  53.2167 241.8935 0001324  65.3347 101.6677 15.28311086  1306","ARG_OF_PERICENTER":"65.3347","BSTAR":"-0.04818800000000","RCS_SIZE":"LARGE","EPHEMERIS_TYPE":"0","MEAN_MOTION_DOT":"-0.01236037","FILE":"3662753","PERIOD":"94.222","ELEMENT_SET_NO":"999","CLASSIFICATION_TYPE":"U","APOAPSIS":"481.771","SITE":"AFETR","MEAN_ELEMENT_THEORY":"SGP4","TLE_LINE1":"1 53636U 22104BA  22322.91667824 -.01236037  00000-0 -48188-1 0  9990","COUNTRY_CODE":"US","LAUNCH_DATE":"2022-08-28","NORAD_CAT_ID":"53636","SEMIMAJOR_AXIS":"6858.998","ECCENTRICITY":"0.00013240","OBJECT_NAME":"STARLINK-4586","CENTER_NAME":"EARTH","REV_AT_EPOCH":"130","RA_OF_ASC_NODE":"241.8935","MEAN_MOTION":"15.28311086","DECAY_DATE":null,"OBJECT_TYPE":"PAYLOAD","GP_ID":"218169861","EPOCH":"2022-11-18T22:00:00.999936","MEAN_MOTION_DDOT":"0.0000000000000"}];
